#aV2019  6 24  0  0  0.00000000     288 DD+AD WGS84 FIT  NGA
## 2059  86400.00000000   300.00000000 58658 0.0000000000000
+   31     1  2  3  5  6  7  8  9 10 11 12 13 14 15 16 17 18
+         19 20 21 22 23 24 25 26 27 28 29 30 31 32  0  0  0
+          0  0  0  0  0  0  0  0  0  0  0  0  0  0  0  0  0
+          0  0  0  0  0  0  0  0  0  0  0  0  0  0  0  0  0
+          0  0  0  0  0  0  0  0  0  0  0  0  0  0  0  0  0
++         2  2  2  2  2  2  2  2  2  2  2  2  2  2  2  2  2
++         2  2  2  2  2  2  2  2  2  2  2  2  2  2  0  0  0
++         0  0  0  0  0  0  0  0  0  0  0  0  0  0  0  0  0
++         0  0  0  0  0  0  0  0  0  0  0  0  0  0  0  0  0
++         0  0  0  0  0  0  0  0  0  0  0  0  0  0  0  0  0
%c cc cc ccc ccc cccc cccc cccc cccc ccccc ccccc ccccc ccccc
%c cc cc ccc ccc cccc cccc cccc cccc ccccc ccccc ccccc ccccc
%f  0.0000000  0.000000000  0.00000000000  0.000000000000000
%f  0.0000000  0.000000000  0.00000000000  0.000000000000000
%i    0    0    0    0      0      0      0      0         0
%i    0    0    0    0      0      0      0      0         0
/*      NGA, ST. LOUIS,MO.                                  
/*   EPHEMERIS COMPUTED FROM 2 DAYS OF DATA                 
/*   EPOCHA v5 SMOOTHER                                     
/*   G1762 IERS2010 SATAF SATAPC                            
*  2019  6 24  2 25  0.00000000
P  1 -13813.361001  22454.064244  -1186.251931    -49.028982                    
V  1  -2877.925467   -352.557911  32263.585640     -0.099467                    
P  2  18251.268504  -8281.563724 -16748.691017   -244.471805                    
V  2  -9192.510227  20663.720992 -19681.299458     -0.088559                    
P  3 -12172.239878  13059.728894 -19680.160187    184.389999                    
V  3 -24817.465691  -2538.925559  13780.588953     -0.015723                    
P  5  26130.716823  -2586.348610   4555.363494      0.401414                    
V  5   5834.017898   3082.696570 -30675.982056     -0.001968                    
P  6  13276.297713   6802.003177 -21934.188356    169.295720                    
V  6 -15045.163080  23501.336805  -1781.996649     -0.108251                    
P  7  -2935.643069  22255.900779  14075.127887    -50.606606                    
V  7 -11917.520968  13238.551232 -24344.341039     -0.076485                    
P  8 -10445.516190  11687.028475  21442.343208   -148.592259                    
V  8 -13210.974161 -23739.650662   6713.753694     -0.014284                    
P  9   6862.121255  24527.034433  -7555.177475    385.350289                    
V  9  -7029.150583  -7096.500948 -29581.488201     -0.078883                    
P 10 -18716.866300 -11479.598894  15150.510300      6.400324                    
V 10  19107.140164   -881.723765  22835.970014     -0.122363                    
P 11  -9214.239835  23612.105763   7832.869838   -577.477558                    
V 11  -2578.379527 -11088.294358  28202.164224      0.088609                    
P 12  14844.707544 -11095.305707 -19174.971858    230.309928                    
V 12  23592.959328   3949.436847  16323.470066     -0.035534                    
P 13  15248.354849  -1571.976305  21586.418610    -57.692999                    
V 13   9092.525260  26104.480004  -4449.889546      0.016703                    
P 14 -16955.821278 -13925.000388 -14772.960095    -74.691915                    
V 14  -5468.725069 -18581.510730  23099.687190      0.017338                    
P 15   9623.102596 -13442.072581  20457.726348   -305.181533                    
V 15  15334.007249  21991.909879   7534.187846      0.023435                    
P 16 -26284.620883   -309.258999   4988.867532    -50.567599                    
V 16  -6184.932461  -2610.170303 -31130.344846     -0.031154                    
P 17  14824.121557  20469.579201  -7904.319638     76.907077                    
V 17   2483.909336  10436.980354  30060.107411      0.064756                    
P 18 -16951.403493  18774.733438   7384.228740     64.424308                    
V 18   2439.226361 -10243.760757  29784.261110      0.030828                    
P 19  16439.934351  14919.540238 -14836.497574   -302.778825                    
V 19   5186.936098  17608.117883  24009.920518      0.047747                    
P 20  -9911.502706 -14253.839695  20035.945272    525.568321                    
V 20  25595.949674  -2987.029807  10325.612344      0.002192                    
P 21  -2874.357685 -20446.637267  17591.477545   -167.431793                    
V 21  11666.601730 -17274.097687 -18886.479386      0.071629                    
P 22 -19022.517920  11235.237562 -14454.150343   -721.506256                    
V 22 -18933.294905  -2540.684678  22665.857299     -0.055309                    
P 23  -3686.584830  19482.637811 -17133.919073   -180.392203                    
V 23 -12734.949547 -18858.658635 -18738.581068      0.017265                    
P 24  14570.883178 -21852.858054   2298.933825    -67.866872                    
V 24   1718.573306   4623.133116  31286.641118     -0.006202                    
P 25    409.328334 -15111.646361 -22053.389487   -768.208585                    
V 25  27413.703814   1586.143821   -338.498459     -0.030683                    
P 26 -25662.280540  -4622.726851  -5546.663431    234.521784                    
V 26   7064.306715  -2684.377303 -30380.260795      0.093864                    
P 27 -16466.781240  -1523.785550  20741.076731   -166.098938                    
V 27 -11513.718869 -23840.193770 -10542.643736     -0.103075                    
P 28  17083.968236  13234.472182  15978.771661    767.199926                    
V 28 -19189.204537  -1352.679580  22591.847201     -0.003409                    
P 29  -2358.093781 -24043.629221 -11061.806782    168.750699                    
V 29   7129.777525  12127.674876 -27982.594478     -0.095517                    
P 30   6113.383451  16447.949567  19911.200936   -129.790207                    
V 30 -15813.891587  19862.379481 -11759.909145     -0.073829                    
P 31 -14716.096750  -5217.310594 -21531.746998     28.995325                    
V 31  15322.102743 -22582.812648  -4564.846071     -0.025949                    
P 32 -16692.890947 -18774.889228  -8740.570140    -30.825525                    
V 32  -2804.339076 -11115.889906  28904.050984      0.158294                    
EOF
